NORAD_CAT_ID,OBJECT_NAME,OBJECT_TYPE,EPOCH,MEAN_MOTION,ECCENTRICITY,INCLINATION,RA_OF_ASC_NODE,ARG_OF_PERICENTER,MEAN_ANOMALY,BSTAR,MEAN_MOTION_DOT,MEAN_MOTION_DDOT,TLE_LINE0,TLE_LINE1,TLE_LINE2,SEMIMAJOR_AXIS,PERIOD,APOGEE,PERIGEE,DECAYED
52842.0,STARLINK-4046,PAYLOAD,2023-02-13 10:21:44,15.08865316,0.0001041,53.2155,23.1638,63.2149,296.895,0.0014041,0.00022144,0.0,0 STARLINK-4046,1 52842U 22062N   23044.43176945  .00022144  00000-0  14041-2 0  9990,2 52842  53.2155  23.1638 0001041  63.2149 296.8950 15.08865316 36661,6917.803,95.436,540.388,538.948,0.0
52842.0,STARLINK-4046,PAYLOAD,2023-02-13 15:07:57,15.08743091,0.0002256,53.2153,22.2695,87.6179,272.5071,-0.0022656,-0.00036071,0.0,0 STARLINK-4046,1 52842U 22062N   23044.63052160 -.00036071  00000-0 -22656-2 0  9991,2 52842  53.2153  22.2695 0002256  87.6179 272.5071 15.08743091 37182,6918.177,95.444,541.602,538.481,0.0
52842.0,STARLINK-4046,PAYLOAD,2023-02-14 10:12:58,15.08123652,7.75e-05,53.2149,18.6997,95.6077,264.5003,-0.0089094,-0.00136695,0.0,0 STARLINK-4046,1 52842U 22062N   23045.42567470 -.00136695  00000-0 -89094-2 0  9996,2 52842  53.2149  18.6997 0000775  95.6077 264.5003 15.08123652 37306,6920.071,95.483,542.472,541.4,0.0
52842.0,STARLINK-4046,PAYLOAD,2023-02-14 14:59:18,15.08083647,0.000129,53.2145,17.8101,113.3179,246.7948,-0.0028092,-0.00043813,0.0,0 STARLINK-4046,1 52842U 22062N   23045.62452167 -.00043813  00000-0 -28092-2 0  9994,2 52842  53.2145  17.8101 0001290 113.3179 246.7948 15.08083647 36841,6920.193,95.485,542.951,541.166,0.0
52842.0,STARLINK-4046,PAYLOAD,2023-02-15 05:18:14,15.0804688,0.0001315,53.2143,15.1344,109.5353,250.5781,0.0025259,0.00039272,0.0,0 STARLINK-4046,1 52842U 22062N   23046.22100162  .00039272  00000-0  25259-2 0  9990,2 52842  53.2143  15.1344 0001315 109.5353 250.5781 15.08046880 37429,6920.306,95.488,543.081,541.261,0.0
52842.0,STARLINK-4046,PAYLOAD,2023-02-17 19:18:26,15.09008695,0.000103,53.2146,3.5336,99.9665,260.1444,0.0027077,0.0004327,0.0,0 STARLINK-4046,1 52842U 22062N   23048.80447381  .00043270  00000-0  27077-2 0  9996,2 52842  53.2146   3.5336 0001030  99.9665 260.1444 15.09008695 37815,6917.365,95.427,539.942,538.517,0.0
52842.0,STARLINK-4046,PAYLOAD,2023-02-17 22:29:23,15.08809218,0.0001127,53.2141,2.9403,95.0248,265.0872,0.0010991,0.00017233,0.0,0 STARLINK-4046,1 52842U 22062N   23048.93707345  .00017233  00000-0  10991-2 0  9996,2 52842  53.2141   2.9403 0001127  95.0248 265.0872 15.08809218 37345,6917.974,95.44,540.619,539.06,0.0
52842.0,STARLINK-4046,PAYLOAD,2023-02-18 01:40:09,15.08814543,0.0001065,53.2153,2.3459,72.5876,287.5232,0.00048423,7.422e-05,0.0,0 STARLINK-4046,1 52842U 22062N   23049.06955611  .00007422  00000-0  48423-3 0  9993,2 52842  53.2153   2.3459 0001065  72.5876 287.5232 15.08814543 37853,6917.958,95.439,540.56,539.086,0.0
52842.0,STARLINK-4046,PAYLOAD,2023-02-18 03:15:32,15.08815765,0.0001077,53.2146,2.0487,87.3782,272.7333,0.00068698,0.00010655,0.0,0 STARLINK-4046,1 52842U 22062N   23049.13579645  .00010655  00000-0  68698-3 0  9998,2 52842  53.2146   2.0487 0001077  87.3782 272.7333 15.08815765 37378,6917.954,95.439,540.565,539.074,0.0
52842.0,STARLINK-4046,PAYLOAD,2023-02-19 03:06:19,15.08877787,0.0001127,53.2152,357.5873,101.3322,258.7797,0.0016858,0.00026671,0.0,0 STARLINK-4046,1 52842U 22062N   23050.12938754  .00026671  00000-0  16858-2 0  9994,2 52842  53.2152 357.5873 0001127 101.3322 258.7797 15.08877787 38017,6917.765,95.435,540.41,538.85,0.0
52842.0,STARLINK-4046,PAYLOAD,2023-02-19 14:00:01,15.08814829,0.0001084,53.2159,355.5485,81.8743,225.4244,0.001169,0.00018353,0.0,0 STARLINK-4046,1 52842U 22062N   23050.58334491  .00018353  00000-0  11690-2 0  9999,2 52842  53.2159 355.5485 0001084  81.8743 225.4244 15.08814829  1300,6917.957,95.439,540.572,539.072,0.0
52842.0,STARLINK-4046,PAYLOAD,2023-02-19 16:00:00,15.08796508,0.0001061,53.2158,355.1741,87.1636,313.0337,0.0042467,0.00067868,0.0,0 STARLINK-4046,1 52842U 22062N   23050.66667824  .00067868  00000-0  42467-2 0  9998,2 52842  53.2158 355.1741 0001061  87.1636 313.0337 15.08796508 38091,6918.013,95.44,540.612,539.144,0.0
52842.0,STARLINK-4046,PAYLOAD,2023-02-20 10:00:00,15.08825468,0.0001078,53.2157,351.8085,88.7662,67.4995,0.00080888,0.00012604,0.0,0 STARLINK-4046,1 52842U 22062N   23051.41667824  .00012604  00000-0  80888-3 0  9990,2 52842  53.2157 351.8085 0001078  88.7662  67.4995 15.08825468 38210,6917.925,95.438,540.536,539.044,0.0
52842.0,STARLINK-4046,PAYLOAD,2023-02-20 14:00:01,15.08823313,0.0001072,53.216,351.0595,97.4466,244.6099,0.0015195,0.00023966,0.0,0 STARLINK-4046,1 52842U 22062N   23051.58334491  .00023966  00000-0  15195-2 0  9990,2 52842  53.2160 351.0595 0001072  97.4466 244.6099 15.08823313  1306,6917.931,95.439,540.538,539.055,0.0
52842.0,STARLINK-4046,PAYLOAD,2023-02-21 12:20:11,15.0885647,0.0001029,53.2158,346.8829,90.9212,269.1898,0.00054479,8.397e-05,0.0,0 STARLINK-4046,1 52842U 22062N   23052.51402217  .00008397  00000-0  54479-3 0  9996,2 52842  53.2158 346.8829 0001029  90.9212 269.1898 15.08856470 38370,6917.83,95.437,540.407,538.983,0.0
52842.0,STARLINK-4046,PAYLOAD,2023-02-21 18:41:44,15.088513,0.0001286,53.2164,345.6979,108.757,251.3561,0.00035861,5.426e-05,0.0,0 STARLINK-4046,1 52842U 22062N   23052.77898255  .00005426  00000-0  35861-3 0  9999,2 52842  53.2164 345.6979 0001286 108.7570 251.3561 15.08851300 37927,6917.846,95.437,540.6,538.821,0.0
52842.0,STARLINK-4046,PAYLOAD,2023-02-22 02:38:39,15.08850094,9.8e-05,53.2159,344.2077,89.3191,270.7914,0.00037835,5.74e-05,0.0,0 STARLINK-4046,1 52842U 22062N   23053.11018183  .00005740  00000-0  37835-3 0  9994,2 52842  53.2159 344.2077 0000980  89.3191 270.7914 15.08850094 38464,6917.85,95.437,540.392,539.037,0.0
52842.0,STARLINK-4046,PAYLOAD,2023-02-22 04:14:02,15.08854278,0.0001085,53.2161,343.9096,88.627,271.4847,0.00047287,7.249e-05,0.0,0 STARLINK-4046,1 52842U 22062N   23053.17642092  .00007249  00000-0  47287-3 0  9990,2 52842  53.2161 343.9096 0001085  88.6270 271.4847 15.08854278 37988,6917.837,95.437,540.452,538.951,0.0
52842.0,STARLINK-4046,PAYLOAD,2023-02-23 04:04:50,15.08838875,0.0001268,53.2148,339.449,81.7817,278.3319,0.00037958,5.758e-05,0.0,0 STARLINK-4046,1 52842U 22062N   23054.17003292  .00005758  00000-0  37958-3 0  9991,2 52842  53.2148 339.4490 0001268  81.7817 278.3319 15.08838875 38622,6917.884,95.438,540.626,538.872,0.0
52842.0,STARLINK-4046,PAYLOAD,2023-02-23 18:23:19,15.08849535,0.0001365,53.2147,336.7729,81.1728,278.9418,0.00063524,9.839e-05,0.0,0 STARLINK-4046,1 52842U 22062N   23054.76619227  .00009839  00000-0  63524-3 0  9999,2 52842  53.2147 336.7729 0001365  81.1728 278.9418 15.08849535 38226,6917.851,95.437,540.661,538.772,0.0
52842.0,STARLINK-4046,PAYLOAD,2023-02-24 03:55:37,15.08883174,0.0001499,53.2145,334.9874,76.3169,283.799,0.0015754,0.00024903,0.0,0 STARLINK-4046,1 52842U 22062N   23055.16362345  .00024903  00000-0  15754-2 0  9990,2 52842  53.2145 334.9874 0001499  76.3169 283.7990 15.08883174 38774,6917.748,95.435,540.65,538.576,0.0
52842.0,STARLINK-4046,PAYLOAD,2023-02-24 18:14:05,15.08852032,0.0001632,53.2142,332.3108,83.4011,276.7167,0.00022332,3.269e-05,0.0,0 STARLINK-4046,1 52842U 22062N   23055.75978578  .00003269  00000-0  22332-3 0  9999,2 52842  53.2142 332.3108 0001632  83.4011 276.7167 15.08852032 38370,6917.844,95.437,540.838,538.58,0.0
52842.0,STARLINK-4046,PAYLOAD,2023-02-25 00:35:38,15.08844982,0.0001418,53.2145,331.1209,89.2189,270.8966,0.00084445,0.00013179,0.0,0 STARLINK-4046,1 52842U 22062N   23056.02474633  .00013179  00000-0  84445-3 0  9997,2 52842  53.2145 331.1209 0001418  89.2189 270.8966 15.08844982 38900,6917.865,95.437,540.711,538.749,0.0
52842.0,STARLINK-4046,PAYLOAD,2023-02-25 03:46:24,15.08846187,0.0001426,53.2145,330.5265,89.2126,270.9029,0.00094455,0.00014779,0.0,0 STARLINK-4046,1 52842U 22062N   23056.15722606  .00014779  00000-0  94455-3 0  9996,2 52842  53.2145 330.5265 0001426  89.2126 270.9029 15.08846187 38433,6917.861,95.437,540.713,538.74,0.0
52842.0,STARLINK-4046,PAYLOAD,2023-02-25 21:15:39,15.08839015,0.000147,53.215,327.2534,91.4564,268.6596,0.0010913,0.00017122,0.0,0 STARLINK-4046,1 52842U 22062N   23056.88587276  .00017122  00000-0  10913-2 0  9999,2 52842  53.2150 327.2534 0001470  91.4564 268.6596 15.08839015 38548,6917.883,95.438,540.765,538.731,0.0
52842.0,STARLINK-4046,PAYLOAD,2023-02-26 03:37:11,15.08855043,0.0001411,53.215,326.0643,89.7169,270.3985,0.0013119,0.00020661,0.0,0 STARLINK-4046,1 52842U 22062N   23057.15083057  .00020661  00000-0  13119-2 0  9991,2 52842  53.2150 326.0643 0001411  89.7169 270.3985 15.08855043 39072,6917.834,95.437,540.676,538.723,0.0
52842.0,STARLINK-4046,PAYLOAD,2023-02-27 03:27:57,15.08881543,0.0001444,53.2153,321.604,82.1695,277.9461,0.0017327,0.00027427,0.0,0 STARLINK-4046,1 52842U 22062N   23058.14441885  .00027427  00000-0  17327-2 0  9990,2 52842  53.2153 321.6040 0001444  82.1695 277.9461 15.08881543 39227,6917.753,95.435,540.617,538.619,0.0
52842.0,STARLINK-4046,PAYLOAD,2023-02-27 17:46:25,15.08899371,5.08e-05,53.2149,318.9271,50.3502,309.7535,0.0040001,0.00064057,0.0,0 STARLINK-4046,1 52842U 22062N   23058.74057197  .00064057  00000-0  40001-2 0  9990,2 52842  53.2149 318.9271 0000508  50.3502 309.7535 15.08899371 39315,6917.699,95.434,539.915,539.213,0.0
52842.0,STARLINK-4046,PAYLOAD,2023-02-28 03:18:43,15.08870657,9.66e-05,53.2149,317.1456,85.0843,275.0259,0.00091272,0.0001428,0.0,0 STARLINK-4046,1 52842U 22062N   23059.13800491  .00014280  00000-0  91272-3 0  9997,2 52842  53.2149 317.1456 0000966  85.0843 275.0259 15.08870657 39372,6917.787,95.436,540.32,538.983,0.0
52842.0,STARLINK-4046,PAYLOAD,2023-02-28 22:23:23,15.08802105,0.000124,53.2147,313.5717,104.0419,256.0711,-0.00030706,-5.166e-05,0.0,0 STARLINK-4046,1 52842U 22062N   23059.93291192 -.00005166  00000-0 -30706-3 0  9997,2 52842  53.2147 313.5717 0001240 104.0419 256.0711 15.08802105 39002,6917.996,95.44,540.719,539.003,0.0
